[
  {
    "_id": "1",
    "version": 1,
    "type": "saml20_sp",
    "data": {
      "entityid": "https://wiki",
      "metaDataFields": {
        "name:en": "Wiki EN",
        "name:nl": "Wiki NL",
        "OrganizationName:en": "SURF bv"
      }
    }
  },
  {
    "_id": "2",
    "version": 1,
    "type": "saml20_sp",
    "data": {
      "entityid": "https://network",
      "metaDataFields": {
        "name:en": "Network EN",
        "name:nl": "Network NL",
        "OrganizationName:en": "SURF bv"
      }
    }
  },
  {
    "_id": "3",
    "version": 1,
    "type": "saml20_sp",
    "data": {
      "entityid": "https://storage",
      "metaDataFields": {
        "name:en": "Storage EN",
        "name:nl": "Storage NL",
        "OrganizationName:en": "SURF bv"
      }
    }
  },
  {
    "_id": "4",
    "version": 1,
    "type": "saml20_sp",
    "data": {
      "entityid": "https://research",
      "metaDataFields": {
        "name:en": "Research EN",
        "name:nl": "Research NL",
        "OrganizationName:en": "SURF bv"
      }
    }
  }
]
